GLOBALSTAR M023 [+]     
1 25621U 99004A   23306.59091619  .00000001  00000+0  58495-3 0  9996
2 25621  52.0119  57.8046 0009110 252.5878 120.2747 12.62445439140888
GLOBALSTAR M040 [-]     
1 25622U 99004B   23306.52085913 -.00000077  00000+0  14725-3 0  9992
2 25622  51.9927  61.3080 0001143 139.5304 346.5904 12.61958294140423
GLOBALSTAR M036 [-]     
1 25623U 99004C   23306.87227972  .00000016  00000+0  14390-2 0  9993
2 25623  51.9998   1.4673 0010724   1.4209 170.0100 11.86556684108662
GLOBALSTAR M038 [-]     
1 25624U 99004D   23306.86764706 -.00000066  00000+0  23996-3 0  9993
2 25624  51.9992 337.3217 0001518 257.1057 274.3886 12.32486969129330
GLOBALSTAR M022 [-]     
1 25649U 99012A   23306.74853448 -.00000067  00000+0  23964-3 0  9994
2 25649  52.0022 101.3773 0003574  84.5762  18.1591 12.02471831105103
GLOBALSTAR M041 [-]     
1 25650U 99012B   23306.75415974 -.00000054  00000+0  40896-3 0  9994
2 25650  52.0032 324.7563 0001859 226.4289 133.6393 11.96645522107353
GLOBALSTAR M046 [-]     
1 25651U 99012C   23306.77828001  .00000018  00000+0  11754-2 0  9995
2 25651  52.0058  73.0515 0002911 138.8030   9.3457 12.09379079111983
GLOBALSTAR M037 [+]     
1 25652U 99012D   23306.94007846 -.00000084  00000+0  10951-3 0  9994
2 25652  51.9994 187.5920 0001666 346.0848  27.0388 12.62387047136472
